1 44761U 19074BA  23215.10379205  .00004733  00000-0  33645-3 0  9994
2 44761  53.0545 169.4771 0001550  93.0555 267.0612 15.06400309205244
1 44761U 19074BA  23216.09898330  .00019550  00000-0  13264-2 0  9995
2 44761  53.0543 165.0083 0001818 117.7886 242.3287 15.06436962205392
1 44761U 19074BA  23216.29802013  .00013469  00000-0  92060-3 0  9995
2 44761  53.0537 164.1151 0001660  92.1825 267.9354 15.06432583205422
1 44761U 19074BA  23217.09418948  .00004034  00000-0  28957-3 0  9996
2 44761  53.0529 160.5410 0001068 102.5770 257.5339 15.06399122205540
1 44761U 19074BA  23218.08938498  .00030350  00000-0  20454-2 0  9996
2 44761  53.0529 156.0741 0001013  89.8259 270.2846 15.06441369205698
1 44761U 19074BA  23218.81921646  .00011531  00000-0  79203-3 0  9991
2 44761  53.0532 152.7970 0003270  76.2150 283.9203 15.06385214205803
1 44761U 19074BA  23219.08461014  .00014223  00000-0  97294-3 0  9990
2 44761  53.0532 151.6062 0001258  71.0252 289.0873 15.06355249205842
1 44761U 19074BA  23220.07982871  .00027523  00000-0  18595-2 0  9993
2 44761  53.0534 147.1390 0001179  65.1504 294.9608 15.06398916205999
1 44761U 19074BA  23220.21252116  .00032538  00000-0  21926-2 0  9995
2 44761  53.0532 146.5434 0001169  64.6175 295.4935 15.06411299206019
1 44761U 19074BA  23220.80963444  .00024796  00000-0  16762-2 0  9992
2 44761  53.0531 143.8621 0001141  68.9738 291.1373 15.06433380206102
1 44761U 19074BA  23221.20772099  .00019834  00000-0  13471-2 0  9992
2 44761  53.0532 142.0755 0001107  44.6007 315.5070 15.06388222206169
1 44761U 19074BA  23222.46830616  .00004161  00000-0  29803-3 0  9995
2 44761  53.0531 136.4161 0000992  57.7722 302.3363 15.06405422206358
1 44761U 19074BA  23223.19812397  .00006567  00000-0  45931-3 0  9994
2 44761  53.0557 133.1388 0001285  65.8480 294.2644 15.06402349206466
1 44761U 19074BA  23223.72889271  .00017922  00000-0  12182-2 0  9996
2 44761  53.0549 130.7573 0001404  76.8768 283.2378 15.06424252206548
1 44761U 19074BA  23224.12696088  .00021001  00000-0  14228-2 0  9999
2 44761  53.0535 128.9708 0001226  75.1539 284.9586 15.06446589206605
1 44761U 19074BA  23224.72408554  .00002473  00000-0  18476-3 0  9996
2 44761  53.0537 126.2901 0001171  85.7844 274.3279 15.06411734206693
1 44761U 19074BA  23224.98947713  .00017049  00000-0  11607-2 0  9992
2 44761  53.0539 125.0993 0001513  79.9695 280.1465 15.06399751206733
1 44761U 19074BA  23225.12217187  .00016974  00000-0  11558-2 0  9995
2 44761  53.0537 124.5031 0001027  98.0359 262.0746 15.06394837206750
1 44761U 19074BA  23226.97988585  .00007722  00000-0  53676-3 0  9995
2 44761  53.0547 116.1641 0001138  85.9609 274.1510 15.06395548207036
1 44761U 19074BA  23228.04143587  .00017702  00000-0  12037-2 0  9994
2 44761  53.0552 111.3996 0001143  85.1402 274.9717 15.06418132207190
1 44761U 19074BA  23228.70491263  .00005552  00000-0  39135-3 0  9993
2 44761  53.0544 108.4215 0001189  79.8843 280.2280 15.06396463207299
1 44761U 19074BA  23230.03184132  .00018240  00000-0  12392-2 0  9999
2 44761  53.0531 102.4634 0001305  88.7604 271.3534 15.06431620207498
1 44761U 19074BA  23230.62896909  .00005035  00000-0  35665-3 0  9993
2 44761  53.0534  99.7823 0001684  89.7382 270.3800 15.06405377207588
1 44761U 19074BA  23231.02705504  .00007966  00000-0  55313-3 0  9995
2 44761  53.0530  97.9951 0001318  79.7593 280.3545 15.06394048207649
1 44761U 19074BA  23232.02225393  .00020865  00000-0  14145-2 0  9999
2 44761  53.0532  93.5270 0001275  75.7435 284.3695 15.06425375207794
1 44761U 19074BA  23232.75207161  .00015666  00000-0  10683-2 0  9998
2 44761  53.0524  90.2490 0001223  99.1930 260.9198 15.06399899207908
1 44761U 19074BA  23233.01745937  .00009014  00000-0  62329-3 0  9991
2 44761  53.0535  89.0579 0001183  86.3171 273.7953 15.06399602207941
1 44761U 19074BA  23233.81361141  .00013146  00000-0  89916-3 0  9992
2 44761  53.0535  85.4841 0001149  85.2464 274.8656 15.06425154208066
1 44761U 19074BA  23234.60977675  .00003995  00000-0  28692-3 0  9990
2 44761  53.0545  81.9086 0002622  68.6896 291.4373 15.06407510208180
1 44761U 19074BA  23234.94151117  .00002410  00000-0  18068-3 0  9999
2 44761  53.0537  80.4171 0001121 134.3700 225.7381 15.06390590208232
1 44761U 19074BA  23235.53864265  .00002810  00000-0  20756-3 0  9991
2 44761  53.0535  77.7372 0001073 107.5518 252.5589 15.06381388208320
1 44761U 19074BA  23236.00306720  .00011308  00000-0  77669-3 0  9998
2 44761  53.0535  75.6562 0001325 108.0196 252.0937 15.06405189208391
1 44761U 19074BA  23236.93193236  .00008687  00000-0  60131-3 0  9998
2 44761  53.0533  71.4860 0001871  71.8672 288.2521 15.06402793208361
1 44761U 19074BA  23236.93193236  .00008687  00000-0  60131-3 0  9998
2 44761  53.0533  71.4860 0001871  71.8672 288.2521 15.06402793208530
1 44761U 19074BA  23237.92712208  .00012027  00000-0  82438-3 0  9991
2 44761  53.0545  67.0178 0001496  91.1139 269.0022 15.06423898208512
1 44761U 19074BA  23238.52424718  .00000894  00000-0  78908-4 0  9991
2 44761  53.0542  64.3374 0001269 102.4380 257.6751 15.06401635208606
1 44761U 19074BA  23238.72328883  .00000686  00000-0  64923-4 0  9990
2 44761  53.0543  63.4432 0001307  94.2095 265.9043 15.06396886208805
1 44761U 19074BA  23238.92233055  .00001096  00000-0  92477-4 0  9999
2 44761  53.0545  62.5504 0001329  98.7117 261.4022 15.06397141208662
1 44761U 19074BA  23239.71848886  .00012115  00000-0  83045-3 0  9995
2 44761  53.0547  58.9765 0001309  96.8251 263.2887 15.06415759208786
1 44761U 19074BA  23239.71848886  .00012115  00000-0  83045-3 0  9995
2 44761  53.0547  58.9765 0001309  96.8251 263.2887 15.06415759208955
1 44761U 19074BA  23240.44830761  .00004853  00000-0  34443-3 0  9998
2 44761  53.0548  55.7005 0002550  78.5048 281.6228 15.06407191209065
1 44761U 19074BA  23240.78004176  .00002645  00000-0  19643-3 0  9990
2 44761  53.0555  54.2118 0001406  87.3128 272.8022 15.06394061208949
1 44761U 19074BA  23240.78004176  .00002645  00000-0  19643-3 0  9990
2 44761  53.0555  54.2118 0001406  87.3128 272.8022 15.06394061209119
1 44761U 19074BA  23241.70889657  .00015366  00000-0  10478-2 0  9998
2 44761  53.0550  50.0416 0001373  82.5180 277.5965 15.06415825209252
1 44761U 19074BA  23241.77524238  .00015899  00000-0  10833-2 0  9992
2 44761  53.0548  49.7438 0001363  81.7261 278.3883 15.06418687209097
1 44761U 19074BA  23242.50505972  .00000112  00000-0  26393-4 0  9990
2 44761  53.0546  46.4671 0001388  89.0514 271.0634 15.06397270209208
1 44761U 19074BA  23242.50505972  .00000112  00000-0  26393-4 0  9990
2 44761  53.0546  46.4671 0001388  89.0514 271.0634 15.06397270209376
1 44761U 19074BA  23243.50026161  .00016914  00000-0  11512-2 0  9991
2 44761  53.0546  41.9995 0000879  81.4637 278.6451 15.06414364209353
1 44761U 19074BA  23243.50026161  .00016914  00000-0  11512-2 0  9991
2 44761  53.0546  41.9995 0000879  81.4637 278.6451 15.06414364209522
1 44761U 19074BA  23244.42911485 -.00008723  00000-0 -56739-3 0  9997
2 44761  53.0547  37.8313 0001661  73.9987 286.1184 15.06402604209492
1 44761U 19074BA  23244.42911485 -.00008723  00000-0 -56739-3 0  9997
2 44761  53.0547  37.8313 0001661  73.9987 286.1184 15.06402604209661
1 44761U 19074BA  23244.69450496  .00001286  00000-0  10524-3 0  9993
2 44761  53.0550  36.6391 0001350  71.4554 288.6581 15.06395593209538
1 44761U 19074BA  23245.42432206  .00020117  00000-0  13650-2 0  9990
2 44761  53.0544  33.3618 0001400  71.8098 288.3043 15.06415349209813
1 44761U 19074BA  23245.55701301  .00018813  00000-0  12778-2 0  9999
2 44761  53.0536  32.7655 0001493  75.2496 284.8658 15.06420925209662
1 44761U 19074BA  23245.68970401  .00020160  00000-0  13674-2 0  9996
2 44761  53.0554  32.1704 0001369  71.6315 288.4823 15.06427963209688
1 44761U 19074BA  23246.41952144  .00017284  00000-0  11763-2 0  9992
2 44761  53.0562  28.8947 0000792  16.8290 343.2725 15.06401780209792
1 44761U 19074BA  23246.41952144  .00017284  00000-0  11763-2 0  9992
2 44761  53.0562  28.8947 0000792  16.8290 343.2725 15.06401780209961
1 44761U 19074BA  23246.68491139  .00020954  00000-0  14219-2 0  9990
2 44761  53.0568  27.7038 0000837  71.4447 288.6633 15.06387029210003
1 44761U 19074BA  23247.41473353  .00005122  00000-0  36260-3 0  9991
2 44761  53.0568  24.4278 0001340  84.7329 275.3813 15.06387040209946
1 44761U 19074BA  23247.41473353  .00005122  00000-0  36260-3 0  9991
2 44761  53.0568  24.4278 0001340  84.7329 275.3813 15.06387040210117
1 44761U 19074BA  23248.07820627  .00000156  00000-0  29373-4 0  9994
2 44761  53.0531  21.4473 0001392  78.1407 281.9737 15.06383090210043
1 44761U 19074BA  23248.07820627  .00000156  00000-0  29373-4 0  9994
2 44761  53.0531  21.4473 0001392  78.1407 281.9737 15.06383090210212
1 44761U 19074BA  23249.86955601  .00007185  00000-0  50042-3 0  9998
2 44761  53.0552  13.4063 0001046  81.3708 278.7400 15.06422113210319
1 44761U 19074BA  23250.06859799 -.00007926  00000-0 -51414-3 0  9992
2 44761  53.0564  12.5144 0000157  86.3477 273.7530 15.06380448210517
1 44761U 19074BA  23250.33399405 -.00006669  00000-0 -42955-3 0  9998
2 44761  53.0547  11.3228 0000771  76.3812 283.7263 15.06375337210382
1 44761U 19074BA  23250.73208019 -.00002476  00000-0 -14743-3 0  9998
2 44761  53.0526   9.5335 0001335  76.1122 284.0015 15.06387106210449
1 44761U 19074BA  23251.06381119 -.00000228  00000-0  35849-5 0  9992
2 44761  53.0573   8.0444 0000848  67.8700 292.2379 15.06403396210661
1 44761U 19074BA  23251.52824098  .00012937  00000-0  88569-3 0  9995
2 44761  53.0553   5.9619 0001280  66.7569 293.3554 15.06404441210569
1 44761U 19074BA  23251.72727876  .00019973  00000-0  13550-2 0  9997
2 44761  53.0553   5.0676 0001307  67.6420 292.4707 15.06425382210768
1 44761U 19074BA  23251.79362302  .00025328  00000-0  17114-2 0  9994
2 44761  53.0552   4.7701 0001307  63.7996 296.3127 15.06437658210608
1 44761U 19074BA  23251.79362302  .00025328  00000-0  17114-2 0  9994
2 44761  53.0552   4.7701 0001307  63.7996 296.3127 15.06437658210776
